NORAD_CAT_ID,OBJECT_NAME,OBJECT_TYPE,EPOCH,MEAN_MOTION,ECCENTRICITY,INCLINATION,RA_OF_ASC_NODE,ARG_OF_PERICENTER,MEAN_ANOMALY,BSTAR,MEAN_MOTION_DOT,MEAN_MOTION_DDOT,TLE_LINE0,TLE_LINE1,TLE_LINE2,SEMIMAJOR_AXIS,PERIOD,APOGEE,PERIGEE,DECAYED
49424.0,STARLINK-3135,PAYLOAD,2022-05-22 14:00:01,15.08846216,0.0002399,53.219,336.08,33.3287,112.7244,-0.0016082,-0.00025797,0.0,0 STARLINK-3135,1 49424U 21104S   22142.58334491 -.00025797  00000-0 -16082-2 0  9990,2 49424  53.2190 336.0800 0002399  33.3287 112.7244 15.08846216 30302,6917.861,95.437,541.386,538.067,0.0
49424.0,STARLINK-3135,PAYLOAD,2022-05-22 22:00:01,15.0881397,0.0002643,53.2188,334.5854,30.5256,127.1915,0.0028047,0.00044601,0.0,0 STARLINK-3135,1 49424U 21104S   22142.91668981  .00044601  00000-0  28047-2 0  9998,2 49424  53.2188 334.5854 0002643  30.5256 127.1915 15.08813970  1302,6917.96,95.439,541.653,537.997,0.0
49424.0,STARLINK-3135,PAYLOAD,2022-05-23 06:00:00,15.08846538,0.0002438,53.2186,333.0878,30.6569,138.5816,-0.0022208,-0.00035467,0.0,0 STARLINK-3135,1 49424U 21104S   22143.25001157 -.00035467  00000-0 -22208-2 0  9997,2 49424  53.2186 333.0878 0002438  30.6569 138.5816 15.08846538 30405,6917.86,95.437,541.4119999999998,538.039,0.0
49424.0,STARLINK-3135,PAYLOAD,2022-05-23 14:00:01,15.08906032,0.0002406,53.2183,331.5882,34.4234,146.4096,-0.013718,-0.00212634,0.0,0 STARLINK-3135,1 49424U 21104S   22143.58334491 -.00212634  00000-0 -13718-1 0  9991,2 49424  53.2183 331.5882 0002406  34.4234 146.4096 15.08906032  1307,6917.679,95.433,541.2080000000002,537.879,0.0
49424.0,STARLINK-3135,PAYLOAD,2022-05-23 22:00:01,15.08834578,0.0002574,53.2185,330.0966,28.4879,164.0268,0.00052626,8.096e-05,0.0,0 STARLINK-3135,1 49424U 21104S   22143.91668981  .00008096  00000-0  52626-3 0  9998,2 49424  53.2185 330.0966 0002574  28.4879 164.0268 15.08834578 30506,6917.897,95.438,541.543,537.981,0.0
49424.0,STARLINK-3135,PAYLOAD,2022-05-24 14:00:01,15.08860912,0.0002285,53.2182,327.1027,30.1726,185.4447,-0.0030274,-0.00048177,0.0,0 STARLINK-3135,1 49424U 21104S   22144.58334491 -.00048177  00000-0 -30274-2 0  9998,2 49424  53.2182 327.1027 0002285  30.1726 185.4447 15.08860912  1301,6917.816,95.436,541.262,538.101,0.0
49424.0,STARLINK-3135,PAYLOAD,2022-05-24 22:00:00,15.08798779,0.0002496,53.2178,325.6079,25.4885,201.7362,0.0033835,0.00053913,0.0,0 STARLINK-3135,1 49424U 21104S   22144.91667824  .00053913  00000-0  33835-2 0  9992,2 49424  53.2178 325.6079 0002496  25.4885 201.7362 15.08798779 30652,6918.005999999999,95.44,541.5980000000002,538.145,0.0
49424.0,STARLINK-3135,PAYLOAD,2022-05-25 14:00:01,15.08829509,0.0002254,53.2175,322.6139,27.1304,223.2378,-0.00020367,-3.527e-05,0.0,0 STARLINK-3135,1 49424U 21104S   22145.58334491 -.00003527  00000-0 -20367-3 0  9992,2 49424  53.2175 322.6139 0002254  27.1304 223.2378 15.08829509 30753,6917.9119999999975,95.438,541.337,538.2180000000002,0.0
49424.0,STARLINK-3135,PAYLOAD,2022-05-25 19:15:15,15.08830366,0.0002563,53.2193,321.629,32.6392,327.4759,-3.1125e-05,-7.84e-06,0.0,0 STARLINK-3135,1 49424U 21104S   22145.80226406 -.00000784  00000-0 -31125-4 0  9990,2 49424  53.2193 321.6290 0002563  32.6392 327.4759 15.08830366 29707,6917.91,95.438,541.548,538.002,0.0
49424.0,STARLINK-3135,PAYLOAD,2022-05-26 14:00:01,15.088525400000002,0.0002392,53.217,318.1247,29.9591,255.1745,-0.0016475,-0.00026423,0.0,0 STARLINK-3135,1 49424U 21104S   22146.58334491 -.00026423  00000-0 -16475-2 0  9997,2 49424  53.2170 318.1247 0002392  29.9591 255.1745 15.08852540 30909,6917.842,95.437,541.362,538.052,0.0
49424.0,STARLINK-3135,PAYLOAD,2022-05-26 22:00:00,15.08824077,0.0002595,53.2168,316.6297,26.721,270.0108,0.0005874,9.069e-05,0.0,0 STARLINK-3135,1 49424U 21104S   22146.91667824  .00009069  00000-0  58740-3 0  9990,2 49424  53.2168 316.6297 0002595  26.7210 270.0108 15.08824077  1307,6917.929,95.439,541.589,537.999,0.0
49424.0,STARLINK-3135,PAYLOAD,2022-05-27 14:00:01,15.08838338,0.0002453,53.2171,313.6353,29.1349,290.7577,-0.00085207,-0.00013823,0.0,0 STARLINK-3135,1 49424U 21104S   22147.58334491 -.00013823  00000-0 -85207-3 0  9998,2 49424  53.2171 313.6353 0002453  29.1349 290.7577 15.08838338  1308,6917.885,95.438,541.447,538.054,0.0
49424.0,STARLINK-3135,PAYLOAD,2022-05-27 16:00:00,15.08837072,0.0002537,53.2169,313.2618,28.4073,24.3807,-0.0011887,-0.00019156,0.0,0 STARLINK-3135,1 49424U 21104S   22147.66667824 -.00019156  00000-0 -11887-2 0  9993,2 49424  53.2169 313.2618 0002537  28.4073  24.3807 15.08837072 31072,6917.889,95.438,541.509,537.999,0.0
49424.0,STARLINK-3135,PAYLOAD,2022-05-27 22:00:01,15.08810161,0.0002662,53.217,312.1402,26.4672,305.076,0.0033537,0.00053449,0.0,0 STARLINK-3135,1 49424U 21104S   22147.91668981  .00053449  00000-0  33537-2 0  9993,2 49424  53.2170 312.1402 0002662  26.4672 305.0760 15.08810161  1305,6917.972,95.439,541.678,537.995,0.0
49424.0,STARLINK-3135,PAYLOAD,2022-05-28 04:29:08,15.08840167,0.0002399,53.2204,310.9242,29.2896,330.8231,5.9435e-05,6.58e-06,0.0,0 STARLINK-3135,1 49424U 21104S   22148.18690233  .00000658  00000-0  59435-4 0  9999,2 49424  53.2204 310.9242 0002399  29.2896 330.8231 15.08840167 31140,6917.88,95.438,541.404,538.085,0.0
49424.0,STARLINK-3135,PAYLOAD,2022-05-28 14:00:01,15.08889044,0.0002527,53.2175,309.146,28.3351,326.3379,-0.0044096,-0.00069885,0.0,0 STARLINK-3135,1 49424U 21104S   22148.58334491 -.00069885  00000-0 -44096-2 0  9998,2 49424  53.2175 309.1460 0002527  28.3351 326.3379 15.08889044  1303,6917.73,95.434,541.344,537.847,0.0
49424.0,STARLINK-3135,PAYLOAD,2022-05-28 22:00:00,15.08840917,0.0002679,53.2174,307.6507,23.7473,342.5626,0.0019367,0.00030671,0.0,0 STARLINK-3135,1 49424U 21104S   22148.91667824  .00030671  00000-0  19367-2 0  9996,2 49424  53.2174 307.6507 0002679  23.7473 342.5626 15.08840917  1300,6917.878000000002,95.437,541.596,537.889,0.0
49424.0,STARLINK-3135,PAYLOAD,2022-05-29 06:00:02,15.08812538,0.0002418,53.2179,306.1524,25.4473,352.535,0.002137,0.00033861,0.0,0 STARLINK-3135,1 49424U 21104S   22149.25002315  .00033861  00000-0  21370-2 0  9993,2 49424  53.2179 306.1524 0002418  25.4473 352.5350 15.08812538 31315,6917.964,95.439,541.502,538.1569999999998,0.0
49424.0,STARLINK-3135,PAYLOAD,2022-05-29 13:52:14,15.08836139,0.0002505,53.2194,304.6795,31.0037,329.1103,6.491e-05,7.45e-06,0.0,0 STARLINK-3135,1 49424U 21104S   22149.57794074  .00000745  00000-0  64910-4 0  9992,2 49424  53.2194 304.6795 0002505  31.0037 329.1103 15.08836139 30274,6917.892,95.438,541.49,538.024,0.0
49424.0,STARLINK-3135,PAYLOAD,2022-05-29 22:00:00,15.08798763,0.0002683,53.2179,303.1614,23.0909,17.9918,0.00072064,0.00011187,0.0,0 STARLINK-3135,1 49424U 21104S   22149.91667824  .00011187  00000-0  72064-3 0  9992,2 49424  53.2179 303.1614 0002683  23.0909  17.9918 15.08798763 31410,6918.005999999999,95.44,541.7280000000002,538.015,0.0
49424.0,STARLINK-3135,PAYLOAD,2022-05-30 14:00:01,15.08839623,0.0002593,53.2184,300.168,28.5167,35.6653,-0.0010615,-0.00017143,0.0,0 STARLINK-3135,1 49424U 21104S   22150.58334491 -.00017143  00000-0 -10615-2 0  9991,2 49424  53.2184 300.1680 0002593  28.5167  35.6653 15.08839623  1301,6917.882,95.438,541.54,537.953,0.0
49424.0,STARLINK-3135,PAYLOAD,2022-05-30 22:00:00,15.08823318,0.0002736,53.218,298.6725,26.3582,49.4103,0.0022135,0.00035101,0.0,0 STARLINK-3135,1 49424U 21104S   22150.91667824  .00035101  00000-0  22135-2 0  9999,2 49424  53.2180 298.6725 0002736  26.3582  49.4103 15.08823318  1301,6917.931,95.439,541.689,537.904,0.0
49424.0,STARLINK-3135,PAYLOAD,2022-05-31 06:00:02,15.08817152,0.0002473,53.2183,297.1744,29.4455,57.9793,0.0029738,0.0004733,0.0,0 STARLINK-3135,1 49424U 21104S   22151.25002315  .00047330  00000-0  29738-2 0  9998,2 49424  53.2183 297.1744 0002473  29.4455  57.9793 15.08817152 31615,6917.95,95.439,541.526,538.104,0.0
49424.0,STARLINK-3135,PAYLOAD,2022-05-31 22:00:00,15.08857891,0.0002702,53.2179,294.1835,26.5991,83.9642,-0.0010659,-0.00017222,0.0,0 STARLINK-3135,1 49424U 21104S   22151.91667824 -.00017222  00000-0 -10659-2 0  9994,2 49424  53.2179 294.1835 0002702  26.5991  83.9642 15.08857891 31713,6917.826,95.436,541.56,537.822,0.0
49424.0,STARLINK-3135,PAYLOAD,2022-06-01 20:00:01,15.0883691,0.0002648,53.2177,290.0692,26.2851,26.1866,-5.1697e-07,-2.97e-06,0.0,0 STARLINK-3135,1 49424U 21104S   22152.83334491 -.00000297  00000-0 -51697-6 0  9992,2 49424  53.2177 290.0692 0002648  26.2851  26.1866 15.08836910  1306,6917.89,95.438,541.587,537.923,0.0
49424.0,STARLINK-3135,PAYLOAD,2022-06-02 18:01:33,15.08837161,0.00027,53.2174,285.9471,33.7514,326.365,-2.8538e-05,-7.43e-06,0.0,0 STARLINK-3135,1 49424U 21104S   22153.75107988 -.00000743  00000-0 -28538-4 0  9995,2 49424  53.2174 285.9471 0002700  33.7514 326.3650 15.08837161 30902,6917.889,95.438,541.622,537.886,0.0
49424.0,STARLINK-3135,PAYLOAD,2022-06-03 01:58:28,15.0883876,0.0002708,53.2177,284.4607,34.4944,325.6223,-2.6401e-05,-7.09e-06,0.0,0 STARLINK-3135,1 49424U 21104S   22154.08227882 -.00000709  00000-0 -26401-4 0  9997,2 49424  53.2177 284.4607 0002708  34.4944 325.6223 15.08838760 32033,6917.884,95.438,541.623,537.876,0.0
49424.0,STARLINK-3135,PAYLOAD,2022-06-03 08:20:00,15.08844363,0.000265,53.2184,283.2711,32.6823,327.4333,1.0547e-05,-1.21e-06,0.0,0 STARLINK-3135,1 49424U 21104S   22154.34723351 -.00000121  00000-0  10547-4 0  9999,2 49424  53.2184 283.2711 0002650  32.6823 327.4333 15.08844363 30997,6917.8669999999975,95.437,541.565,537.899,0.0
49424.0,STARLINK-3135,PAYLOAD,2022-06-03 14:41:33,15.08847534,0.0002606,53.2189,282.0823,30.9068,329.2077,3.0144e-05,1.91e-06,0.0,0 STARLINK-3135,1 49424U 21104S   22154.61218956  .00000191  00000-0  30144-4 0  9990,2 49424  53.2189 282.0823 0002606  30.9068 329.2077 15.08847534 32110,6917.857,95.437,541.525,537.92,0.0
